ONEWEB-0012             
1 44057U 19010A   25238.84095273  .00000004  00000+0 -22833-4 0  9995
2 44057  87.9003 287.4722 0002344  89.5282 270.6117 13.16594156312830
ONEWEB-0010             
1 44058U 19010B   25238.86628926 -.00000028  00000+0 -10758-3 0  9994
2 44058  87.9003 287.4503 0001593  87.9096 272.2217 13.16593403312886
ONEWEB-0008             
1 44059U 19010C   25238.89161352 -.00000236  00000+0 -65145-3 0  9994
2 44059  87.9007 287.4434 0002015 103.9010 256.2345 13.16596250313001
ONEWEB-0007             
1 44060U 19010D   25238.92112672  .00000107  00000+0  24895-3 0  9993
2 44060  87.9069 317.9359 0001839  88.3742 271.7599 13.15547892312680
ONEWEB-0006             
1 44061U 19010E   25238.69690193 -.00000204  00000+0 -57558-3 0  9999
2 44061  87.9069 317.9212 0001738  91.3173 268.8157 13.15547749312700
ONEWEB-0011             
1 44062U 19010F   25238.66523780  .00000149  00000+0  36294-3 0  9994
2 44062  87.9071 317.9390 0001744 103.9992 256.1333 13.15548733312695
ONEWEB-0013             
1 45131U 20008A   25238.90896220 -.00000786  00000+0 -23196-2 0  9995
2 45131  87.8514 112.2586 0002708  74.7717 285.3709 13.09431262267554
ONEWEB-0017             
1 45132U 20008B   25238.87064689 -.00000401  00000+0 -11864-2 0  9991
2 45132  87.8764  94.9764 0001404  77.4508 282.6777 13.10378608269403
ONEWEB-0020             
1 45133U 20008C   25238.84074652  .00000082  00000+0  19970-3 0  9990
2 45133  87.8755  94.9653 0001620  89.4506 270.6807 13.10371853269790
ONEWEB-0021             
1 45134U 20008D   25238.85567687 -.00000621  00000+0 -18162-2 0  9999
2 45134  87.8756  94.9965 0001700  78.9305 281.2013 13.10370312270100
ONEWEB-0023             
1 45136U 20008F   25238.86647644 -.00000548  00000+0 -16071-2 0  9999
2 45136  87.8759  94.9771 0001858  88.0690 272.0650 13.10375396269530
ONEWEB-0024             
1 45137U 20008G   25238.83909797  .00000126  00000+0  32586-3 0  9997
2 45137  87.8764  94.9319 0001648  80.7622 279.3692 13.10368459269691
ONEWEB-0025             
1 45138U 20008H   25238.85652471 -.00000636  00000+0 -18590-2 0  9990
2 45138  87.8774  94.9381 0002284  77.6319 282.5064 13.10371698270024
ONEWEB-0026             
1 45139U 20008J   25238.80561397 -.00000273  00000+0 -80724-3 0  9998
2 45139  87.8776  79.7256 0001526  88.1535 271.9768 13.11414030272523
ONEWEB-0028             
1 45140U 20008K   25238.83868725  .00000057  00000+0  12488-3 0  9998
2 45140  87.8776  79.7398 0002345  79.7106 280.4287 13.11418643270042
ONEWEB-0032             
1 45141U 20008L   25238.87228121 -.00000391  00000+0 -11554-2 0  9998
2 45141  87.8756  94.9770 0001809  80.1462 279.9869 13.10370734269751
