[{"OBJECT_NAME":"ONEWEB-0012","OBJECT_ID":"2019-010A","EPOCH":"2025-08-26T20:10:58.315872","MEAN_MOTION":13.16594156,"ECCENTRICITY":0.00023446,"INCLINATION":87.9003,"RA_OF_ASC_NODE":287.4722,"ARG_OF_PERICENTER":89.5282,"MEAN_ANOMALY":270.6117,"EPHEMERIS_TYPE":0,"CLASSIFICATION_TYPE":"U","NORAD_CAT_ID":44057,"ELEMENT_SET_NO":999,"REV_AT_EPOCH":31283,"BSTAR":-2.2833376e-5,"MEAN_MOTION_DOT":4.0e-8,"MEAN_MOTION_DDOT":0},{"OBJECT_NAME":"ONEWEB-0010","OBJECT_ID":"2019-010B","EPOCH":"2025-08-26T20:47:27.392064","MEAN_MOTION":13.16593403,"ECCENTRICITY":0.00015937,"INCLINATION":87.9003,"RA_OF_ASC_NODE":287.4503,"ARG_OF_PERICENTER":87.9096,"MEAN_ANOMALY":272.2217,"EPHEMERIS_TYPE":0,"CLASSIFICATION_TYPE":"U","NORAD_CAT_ID":44058,"ELEMENT_SET_NO":999,"REV_AT_EPOCH":31288,"BSTAR":-0.00010757848,"MEAN_MOTION_DOT":-2.8e-7,"MEAN_MOTION_DDOT":0},{"OBJECT_NAME":"ONEWEB-0008","OBJECT_ID":"2019-010C","EPOCH":"2025-08-26T21:23:55.408128","MEAN_MOTION":13.1659625,"ECCENTRICITY":0.00020159,"INCLINATION":87.9007,"RA_OF_ASC_NODE":287.4434,"ARG_OF_PERICENTER":103.901,"MEAN_ANOMALY":256.2345,"EPHEMERIS_TYPE":0,"CLASSIFICATION_TYPE":"U","NORAD_CAT_ID":44059,"ELEMENT_SET_NO":999,"REV_AT_EPOCH":31300,"BSTAR":-0.00065144518,"MEAN_MOTION_DOT":-2.36e-6,"MEAN_MOTION_DDOT":0},{"OBJECT_NAME":"ONEWEB-0007","OBJECT_ID":"2019-010D","EPOCH":"2025-08-26T22:06:25.348608","MEAN_MOTION":13.15547892,"ECCENTRICITY":0.00018399,"INCLINATION":87.9069,"RA_OF_ASC_NODE":317.9359,"ARG_OF_PERICENTER":88.3742,"MEAN_ANOMALY":271.7599,"EPHEMERIS_TYPE":0,"CLASSIFICATION_TYPE":"U","NORAD_CAT_ID":44060,"ELEMENT_SET_NO":999,"REV_AT_EPOCH":31268,"BSTAR":0.00024895234,"MEAN_MOTION_DOT":1.07e-6,"MEAN_MOTION_DDOT":0},{"OBJECT_NAME":"ONEWEB-0006","OBJECT_ID":"2019-010E","EPOCH":"2025-08-26T16:43:32.326752","MEAN_MOTION":13.15547749,"ECCENTRICITY":0.00017381,"INCLINATION":87.9069,"RA_OF_ASC_NODE":317.9212,"ARG_OF_PERICENTER":91.3173,"MEAN_ANOMALY":268.8157,"EPHEMERIS_TYPE":0,"CLASSIFICATION_TYPE":"U","NORAD_CAT_ID":44061,"ELEMENT_SET_NO":999,"REV_AT_EPOCH":31270,"BSTAR":-0.00057557754,"MEAN_MOTION_DOT":-2.04e-6,"MEAN_MOTION_DDOT":0},{"OBJECT_NAME":"ONEWEB-0011","OBJECT_ID":"2019-010F","EPOCH":"2025-08-26T15:57:56.545920","MEAN_MOTION":13.15548733,"ECCENTRICITY":0.00017449,"INCLINATION":87.9071,"RA_OF_ASC_NODE":317.939,"ARG_OF_PERICENTER":103.9992,"MEAN_ANOMALY":256.1333,"EPHEMERIS_TYPE":0,"CLASSIFICATION_TYPE":"U","NORAD_CAT_ID":44062,"ELEMENT_SET_NO":999,"REV_AT_EPOCH":31269,"BSTAR":0.00036293686,"MEAN_MOTION_DOT":1.49e-6,"MEAN_MOTION_DDOT":0},{"OBJECT_NAME":"ONEWEB-0013","OBJECT_ID":"2020-008A","EPOCH":"2025-08-26T21:48:54.334080","MEAN_MOTION":13.09431262,"ECCENTRICITY":0.00027086,"INCLINATION":87.8514,"RA_OF_ASC_NODE":112.2586,"ARG_OF_PERICENTER":74.7717,"MEAN_ANOMALY":285.3709,"EPHEMERIS_TYPE":0,"CLASSIFICATION_TYPE":"U","NORAD_CAT_ID":45131,"ELEMENT_SET_NO":999,"REV_AT_EPOCH":26755,"BSTAR":-0.0023196259,"MEAN_MOTION_DOT":-7.86e-6,"MEAN_MOTION_DDOT":0},{"OBJECT_NAME":"ONEWEB-0017","OBJECT_ID":"2020-008B","EPOCH":"2025-08-26T20:53:43.891296","MEAN_MOTION":13.10378608,"ECCENTRICITY":0.00014042,"INCLINATION":87.8764,"RA_OF_ASC_NODE":94.9764,"ARG_OF_PERICENTER":77.4508,"MEAN_ANOMALY":282.6777,"EPHEMERIS_TYPE":0,"CLASSIFICATION_TYPE":"U","NORAD_CAT_ID":45132,"ELEMENT_SET_NO":999,"REV_AT_EPOCH":26940,"BSTAR":-0.0011864062,"MEAN_MOTION_DOT":-4.01e-6,"MEAN_MOTION_DDOT":0},{"OBJECT_NAME":"ONEWEB-0020","OBJECT_ID":"2020-008C","EPOCH":"2025-08-26T20:10:40.499328","MEAN_MOTION":13.10371853,"ECCENTRICITY":0.00016207,"INCLINATION":87.8755,"RA_OF_ASC_NODE":94.9653,"ARG_OF_PERICENTER":89.4506,"MEAN_ANOMALY":270.6807,"EPHEMERIS_TYPE":0,"CLASSIFICATION_TYPE":"U","NORAD_CAT_ID":45133,"ELEMENT_SET_NO":999,"REV_AT_EPOCH":26979,"BSTAR":0.00019970055,"MEAN_MOTION_DOT":8.2e-7,"MEAN_MOTION_DDOT":0},{"OBJECT_NAME":"ONEWEB-0021","OBJECT_ID":"2020-008D","EPOCH":"2025-08-26T20:32:10.481568","MEAN_MOTION":13.10370312,"ECCENTRICITY":0.00017003,"INCLINATION":87.8756,"RA_OF_ASC_NODE":94.9965,"ARG_OF_PERICENTER":78.9305,"MEAN_ANOMALY":281.2013,"EPHEMERIS_TYPE":0,"CLASSIFICATION_TYPE":"U","NORAD_CAT_ID":45134,"ELEMENT_SET_NO":999,"REV_AT_EPOCH":27010,"BSTAR":-0.0018162078,"MEAN_MOTION_DOT":-6.21e-6,"MEAN_MOTION_DDOT":0},{"OBJECT_NAME":"ONEWEB-0023","OBJECT_ID":"2020-008F","EPOCH":"2025-08-26T20:47:43.564416","MEAN_MOTION":13.10375396,"ECCENTRICITY":0.00018584,"INCLINATION":87.8759,"RA_OF_ASC_NODE":94.9771,"ARG_OF_PERICENTER":88.069,"MEAN_ANOMALY":272.065,"EPHEMERIS_TYPE":0,"CLASSIFICATION_TYPE":"U","NORAD_CAT_ID":45136,"ELEMENT_SET_NO":999,"REV_AT_EPOCH":26953,"BSTAR":-0.0016071069,"MEAN_MOTION_DOT":-5.48e-6,"MEAN_MOTION_DDOT":0},{"OBJECT_NAME":"ONEWEB-0024","OBJECT_ID":"2020-008G","EPOCH":"2025-08-26T20:08:18.064608","MEAN_MOTION":13.10368459,"ECCENTRICITY":0.00016485,"INCLINATION":87.8764,"RA_OF_ASC_NODE":94.9319,"ARG_OF_PERICENTER":80.7622,"MEAN_ANOMALY":279.3692,"EPHEMERIS_TYPE":0,"CLASSIFICATION_TYPE":"U","NORAD_CAT_ID":45137,"ELEMENT_SET_NO":999,"REV_AT_EPOCH":26969,"BSTAR":0.00032585652,"MEAN_MOTION_DOT":1.26e-6,"MEAN_MOTION_DDOT":0},{"OBJECT_NAME":"ONEWEB-0025","OBJECT_ID":"2020-008H","EPOCH":"2025-08-26T20:33:23.734944","MEAN_MOTION":13.10371698,"ECCENTRICITY":0.00022842,"INCLINATION":87.8774,"RA_OF_ASC_NODE":94.9381,"ARG_OF_PERICENTER":77.6319,"MEAN_ANOMALY":282.5064,"EPHEMERIS_TYPE":0,"CLASSIFICATION_TYPE":"U","NORAD_CAT_ID":45138,"ELEMENT_SET_NO":999,"REV_AT_EPOCH":27002,"BSTAR":-0.0018589658,"MEAN_MOTION_DOT":-6.36e-6,"MEAN_MOTION_DDOT":0},{"OBJECT_NAME":"ONEWEB-0026","OBJECT_ID":"2020-008J","EPOCH":"2025-08-26T19:20:05.047008","MEAN_MOTION":13.1141403,"ECCENTRICITY":0.0001526,"INCLINATION":87.8776,"RA_OF_ASC_NODE":79.7256,"ARG_OF_PERICENTER":88.1535,"MEAN_ANOMALY":271.9768,"EPHEMERIS_TYPE":0,"CLASSIFICATION_TYPE":"U","NORAD_CAT_ID":45139,"ELEMENT_SET_NO":999,"REV_AT_EPOCH":27252,"BSTAR":-0.00080724271,"MEAN_MOTION_DOT":-2.73e-6,"MEAN_MOTION_DDOT":0},{"OBJECT_NAME":"ONEWEB-0028","OBJECT_ID":"2020-008K","EPOCH":"2025-08-26T20:07:42.578400","MEAN_MOTION":13.11418643,"ECCENTRICITY":0.00023455,"INCLINATION":87.8776,"RA_OF_ASC_NODE":79.7398,"ARG_OF_PERICENTER":79.7106,"MEAN_ANOMALY":280.4287,"EPHEMERIS_TYPE":0,"CLASSIFICATION_TYPE":"U","NORAD_CAT_ID":45140,"ELEMENT_SET_NO":999,"REV_AT_EPOCH":27004,"BSTAR":0.00012488277,"MEAN_MOTION_DOT":5.7e-7,"MEAN_MOTION_DDOT":0},{"OBJECT_NAME":"ONEWEB-0032","OBJECT_ID":"2020-008L","EPOCH":"2025-08-26T20:56:05.096544","MEAN_MOTION":13.10370734,"ECCENTRICITY":0.00018093,"INCLINATION":87.8756,"RA_OF_ASC_NODE":94.977,"ARG_OF_PERICENTER":80.1462,"MEAN_ANOMALY":279.9869,"EPHEMERIS_TYPE":0,"CLASSIFICATION_TYPE":"U","NORAD_CAT_ID":45141,"ELEMENT_SET_NO":999,"REV_AT_EPOCH":26975,"BSTAR":-0.0011554371,"MEAN_MOTION_DOT":-3.91e-6,"MEAN_MOTION_DDOT":0}]
